HAWK-7C                 
1 56200U 23054Y   26068.68891713  .00007947  00000+0  30980-3 0  9991
2 56200  97.2829 317.5849 0003651  52.2090 307.9479 15.26207266161848
STARLINK-35505          
1 66329U 25253L   26068.42283715  .00024322  00000+0  89052-3 0  9996
2 66329  42.9995 214.0137 0004772 296.1544  63.8817 15.27569144 20206
